[{"OBJECT_NAME":"FLOCK 4G-24","OBJECT_ID":"2025-009AE","EPOCH":"2026-03-09T17:24:07.838208","MEAN_MOTION":15.27784978,"ECCENTRICITY":0.0001802,"INCLINATION":97.4061,"RA_OF_ASC_NODE":151.514,"ARG_OF_PERICENTER":280.2808,"MEAN_ANOMALY":79.8228,"EPHEMERIS_TYPE":0,"CLASSIFICATION_TYPE":"U","NORAD_CAT_ID":62637,"ELEMENT_SET_NO":999,"REV_AT_EPOCH":6373,"BSTAR":0.00038996067,"MEAN_MOTION_DOT":0.00010513,"MEAN_MOTION_DDOT":0},{"OBJECT_NAME":"STARLINK-36102","OBJECT_ID":"2025-281B","EPOCH":"2026-03-09T16:00:03.000096","MEAN_MOTION":15.27548752,"ECCENTRICITY":0.00017022,"INCLINATION":43.0042,"RA_OF_ASC_NODE":343.8058,"ARG_OF_PERICENTER":272.8951,"MEAN_ANOMALY":305.2793,"EPHEMERIS_TYPE":0,"CLASSIFICATION_TYPE":"U","NORAD_CAT_ID":66849,"ELEMENT_SET_NO":999,"REV_AT_EPOCH":577,"BSTAR":0.0015469241,"MEAN_MOTION_DOT":0.00042511,"MEAN_MOTION_DDOT":0}]
